[
    {
        "Altitude(m)": 702703.651266802,
        "Argument of Periapsis(deg)": 0.0022780242373254137,
        "Eccentricity": 0.0,
        "Inclination(deg)": 45.0,
        "Latitude(deg)": 9.886112633231638,
        "Longitude(deg)": -135.1124024201986,
        "Mean Anomaly(deg)": 165.94304332949622,
        "RAAN(deg)": 154.99784961170838,
        "Satellite Name": "Constellation 1 692",
        "Satellite Number": 692,
        "Semi-Major Axis(m)": 7083131.272910544,
        "Time(s)": 38
    },
    {
        "Altitude(m)": 702704.5412438157,
        "Argument of Periapsis(deg)": 0.002337972243570819,
        "Eccentricity": 0.0,
        "Inclination(deg)": 45.0,
        "Latitude(deg)": 9.843548457484934,
        "Longitude(deg)": -135.07235418363837,
        "Mean Anomaly(deg)": 166.0037444697461,
        "RAAN(deg)": 154.9977930225428,
        "Satellite Name": "Constellation 1 692",
        "Satellite Number": 692,
        "Semi-Major Axis(m)": 7083131.272910544,
        "Time(s)": 39
    },
    {
        "Altitude(m)": 702705.4509054595,
        "Argument of Periapsis(deg)": 0.0023979202498162246,
        "Eccentricity": 0.0,
        "Inclination(deg)": 45.0,
        "Latitude(deg)": 9.800978450903175,
        "Longitude(deg)": -135.03231729251704,
        "Mean Anomaly(deg)": 166.064445609996,
        "RAAN(deg)": 154.99773643337724,
        "Satellite Name": "Constellation 1 692",
        "Satellite Number": 692,
        "Semi-Major Axis(m)": 7083131.272910544,
        "Time(s)": 40
    },
    {
        "Altitude(m)": 702706.3802660862,
        "Argument of Periapsis(deg)": 0.00245786825606163,
        "Eccentricity": 0.0,
        "Inclination(deg)": 45.0,
        "Latitude(deg)": 9.758402640907102,
        "Longitude(deg)": -134.9922916957262,
        "Mean Anomaly(deg)": 166.12514675024588,
        "RAAN(deg)": 154.99767984421166,
        "Satellite Name": "Constellation 1 692",
        "Satellite Number": 692,
        "Semi-Major Axis(m)": 7083131.272910544,
        "Time(s)": 41
    },
    {
        "Altitude(m)": 702707.3293399665,
        "Argument of Periapsis(deg)": 0.002517816262307036,
        "Eccentricity": 0.0,
        "Inclination(deg)": 45.0,
        "Latitude(deg)": 9.715821054895677,
        "Longitude(deg)": -134.95227734218054,
        "Mean Anomaly(deg)": 166.18584789049578,
        "RAAN(deg)": 154.99762325504608,
        "Satellite Name": "Constellation 1 692",
        "Satellite Number": 692,
        "Semi-Major Axis(m)": 7083131.272910544,
        "Time(s)": 42
    },
    {
        "Altitude(m)": 702708.2981412808,
        "Argument of Periapsis(deg)": 0.0025777642685524413,
        "Eccentricity": 0.0,
        "Inclination(deg)": 45.0,
        "Latitude(deg)": 9.67323372024609,
        "Longitude(deg)": -134.91227418081783,
        "Mean Anomaly(deg)": 166.24654903074568,
        "RAAN(deg)": 154.9975666658805,
        "Satellite Name": "Constellation 1 692",
        "Satellite Number": 692,
        "Semi-Major Axis(m)": 7083131.272910544,
        "Time(s)": 43
    },
    {
        "Altitude(m)": 702709.2866841358,
        "Argument of Periapsis(deg)": 0.002637712274797847,
        "Eccentricity": 0.0,
        "Inclination(deg)": 45.0,
        "Latitude(deg)": 9.63064066431433,
        "Longitude(deg)": -134.87228232869606,
        "Mean Anomaly(deg)": 166.3072501709956,
        "RAAN(deg)": 154.99751007671495,
        "Satellite Name": "Constellation 1 692",
        "Satellite Number": 692,
        "Semi-Major Axis(m)": 7083131.272910544,
        "Time(s)": 44
    },
    {
        "Altitude(m)": 702710.2949825478,
        "Argument of Periapsis(deg)": 0.0026976602810432526,
        "Eccentricity": 0.0,
        "Inclination(deg)": 45.0,
        "Latitude(deg)": 9.588041914434182,
        "Longitude(deg)": -134.832301398605,
        "Mean Anomaly(deg)": 166.3679513112454,
        "RAAN(deg)": 154.9974534875494,
        "Satellite Name": "Constellation 1 692",
        "Satellite Number": 692,
        "Semi-Major Axis(m)": 7083131.272910544,
        "Time(s)": 45
    },
    {
        "Altitude(m)": 702711.32305044,
        "Argument of Periapsis(deg)": 0.0027576082872886585,
        "Eccentricity": 0.0,
        "Inclination(deg)": 45.0,
        "Latitude(deg)": 9.545437497918666,
        "Longitude(deg)": -134.79233150764833,
        "Mean Anomaly(deg)": 166.4286524514954,
        "RAAN(deg)": 154.9973968983838,
        "Satellite Name": "Constellation 1 692",
        "Satellite Number": 692,
        "Semi-Major Axis(m)": 7083131.272910544,
        "Time(s)": 46
    },
    {
        "Altitude(m)": 702712.3709016663,
        "Argument of Periapsis(deg)": 0.0028175562935340644,
        "Eccentricity": 0.0,
        "Inclination(deg)": 45.0,
        "Latitude(deg)": 9.502827442059463,
        "Longitude(deg)": -134.75237260485576,
        "Mean Anomaly(deg)": 166.48935359174527,
        "RAAN(deg)": 154.99734030921823,
        "Satellite Name": "Constellation 1 692",
        "Satellite Number": 692,
        "Semi-Major Axis(m)": 7083131.272910544,
        "Time(s)": 47
    },
    {
        "Altitude(m)": 702713.4385499868,
        "Argument of Periapsis(deg)": 0.00287750429977947,
        "Eccentricity": 0.0,
        "Inclination(deg)": 45.0,
        "Latitude(deg)": 9.46021177412697,
        "Longitude(deg)": -134.7124246392794,
        "Mean Anomaly(deg)": 166.55005473199515,
        "RAAN(deg)": 154.99728372005265,
        "Satellite Name": "Constellation 1 692",
        "Satellite Number": 692,
        "Semi-Major Axis(m)": 7083131.272910544,
        "Time(s)": 48
    },
    {
        "Altitude(m)": 702714.5260090714,
        "Argument of Periapsis(deg)": 0.002937452306024875,
        "Eccentricity": 0.0,
        "Inclination(deg)": 45.0,
        "Latitude(deg)": 9.41759052137046,
        "Longitude(deg)": -134.67248755999395,
        "Mean Anomaly(deg)": 166.61075587224508,
        "RAAN(deg)": 154.9972271308871,
        "Satellite Name": "Constellation 1 692",
        "Satellite Number": 692,
        "Semi-Major Axis(m)": 7083131.272910544,
        "Time(s)": 49
    },
    {
        "Altitude(m)": 702715.6332925141,
        "Argument of Periapsis(deg)": 0.0029974003122702807,
        "Eccentricity": 0.0,
        "Inclination(deg)": 45.0,
        "Latitude(deg)": 9.37496371101847,
        "Longitude(deg)": -134.6325613160971,
        "Mean Anomaly(deg)": 166.67145701249495,
        "RAAN(deg)": 154.99717054172152,
        "Satellite Name": "Constellation 1 692",
        "Satellite Number": 692,
        "Semi-Major Axis(m)": 7083131.272910544,
        "Time(s)": 50
    },
    {
        "Altitude(m)": 702716.7604138178,
        "Argument of Periapsis(deg)": 0.0030573483185156866,
        "Eccentricity": 0.0,
        "Inclination(deg)": 45.0,
        "Latitude(deg)": 9.332331370278391,
        "Longitude(deg)": -134.59264585670846,
        "Mean Anomaly(deg)": 166.7321581527449,
        "RAAN(deg)": 154.99711395255596,
        "Satellite Name": "Constellation 1 692",
        "Satellite Number": 692,
        "Semi-Major Axis(m)": 7083131.272910544,
        "Time(s)": 51
    },
    {
        "Altitude(m)": 702717.9073864149,
        "Argument of Periapsis(deg)": 0.003117296324761092,
        "Eccentricity": 0.0,
        "Inclination(deg)": 45.0,
        "Latitude(deg)": 9.289693526337311,
        "Longitude(deg)": -134.5527412990675,
        "Mean Anomaly(deg)": 166.79285929299473,
        "RAAN(deg)": 154.99705736339035,
        "Satellite Name": "Constellation 1 692",
        "Satellite Number": 692,
        "Semi-Major Axis(m)": 7083131.272910544,
        "Time(s)": 52
    },
    {
        "Altitude(m)": 702719.0742236178,
        "Argument of Periapsis(deg)": 0.0031772443310064975,
        "Eccentricity": 0.0,
        "Inclination(deg)": 45.0,
        "Latitude(deg)": 9.247050206360761,
        "Longitude(deg)": -134.51284725614448,
        "Mean Anomaly(deg)": 166.8535604332447,
        "RAAN(deg)": 154.9970007742248,
        "Satellite Name": "Constellation 1 692",
        "Satellite Number": 692,
        "Semi-Major Axis(m)": 7083131.272910544,
        "Time(s)": 53
    },
    {
        "Altitude(m)": 702720.2609386971,
        "Argument of Periapsis(deg)": 0.0032371923372519038,
        "Eccentricity": 0.0,
        "Inclination(deg)": 45.0,
        "Latitude(deg)": 9.204401437494592,
        "Longitude(deg)": -134.47296384522343,
        "Mean Anomaly(deg)": 166.91426157349457,
        "RAAN(deg)": 154.99694418505925,
        "Satellite Name": "Constellation 1 692",
        "Satellite Number": 692,
        "Semi-Major Axis(m)": 7083131.272910544,
        "Time(s)": 54
    },
    {
        "Altitude(m)": 702721.467544804,
        "Argument of Periapsis(deg)": 0.0032971403434973088,
        "Eccentricity": 0.0,
        "Inclination(deg)": 45.0,
        "Latitude(deg)": 9.161747246863767,
        "Longitude(deg)": -134.43309101551296,
        "Mean Anomaly(deg)": 166.97496271374445,
        "RAAN(deg)": 154.99688759589367,
        "Satellite Name": "Constellation 1 692",
        "Satellite Number": 692,
        "Semi-Major Axis(m)": 7083131.272910544,
        "Time(s)": 55
    },
    {
        "Altitude(m)": 702722.6940550149,
        "Argument of Periapsis(deg)": 0.0033570883497427146,
        "Eccentricity": 0.0,
        "Inclination(deg)": 45.0,
        "Latitude(deg)": 9.119087661572971,
        "Longitude(deg)": -134.39322871624412,
        "Mean Anomaly(deg)": 167.0356638539944,
        "RAAN(deg)": 154.99683100672812,
        "Satellite Name": "Constellation 1 692",
        "Satellite Number": 692,
        "Semi-Major Axis(m)": 7083131.272910544,
        "Time(s)": 56
    }
]